[{"OBJECT_NAME":"OMNI-L2","OBJECT_ID":"2022-057AR","EPOCH":"2026-03-09T18:02:52.792224","MEAN_MOTION":14.8107523,"ECCENTRICITY":0.00052733,"INCLINATION":97.481,"RA_OF_ASC_NODE":137.7671,"ARG_OF_PERICENTER":294.5494,"MEAN_ANOMALY":65.517,"EPHEMERIS_TYPE":0,"CLASSIFICATION_TYPE":"U","NORAD_CAT_ID":52771,"ELEMENT_SET_NO":999,"REV_AT_EPOCH":20567,"BSTAR":0.00027609772,"MEAN_MOTION_DOT":2.095e-5,"MEAN_MOTION_DDOT":0},{"OBJECT_NAME":"GAOFEN-12 04","OBJECT_ID":"2023-123A","EPOCH":"2026-03-09T23:07:49.236384","MEAN_MOTION":14.80004662,"ECCENTRICITY":0.00016529,"INCLINATION":97.9129,"RA_OF_ASC_NODE":348.4218,"ARG_OF_PERICENTER":75.8828,"MEAN_ANOMALY":284.2567,"EPHEMERIS_TYPE":0,"CLASSIFICATION_TYPE":"U","NORAD_CAT_ID":57654,"ELEMENT_SET_NO":999,"REV_AT_EPOCH":13795,"BSTAR":0.00022872409,"MEAN_MOTION_DOT":1.679e-5,"MEAN_MOTION_DDOT":0}]
